[{"OBJECT_NAME":"HEAD-3B","OBJECT_ID":"2023-121B","EPOCH":"2026-03-09T23:22:36.568704","MEAN_MOTION":14.6140341,"ECCENTRICITY":0.00038894,"INCLINATION":45.0025,"RA_OF_ASC_NODE":73.4072,"ARG_OF_PERICENTER":120.6786,"MEAN_ANOMALY":239.4455,"EPHEMERIS_TYPE":0,"CLASSIFICATION_TYPE":"U","NORAD_CAT_ID":57627,"ELEMENT_SET_NO":999,"REV_AT_EPOCH":13715,"BSTAR":0.00022518075,"MEAN_MOTION_DOT":9.66e-6,"MEAN_MOTION_DDOT":0},{"OBJECT_NAME":"CZ-2D DEB","OBJECT_ID":"2011-068D","EPOCH":"2026-03-08T22:54:46.215648","MEAN_MOTION":14.49433253,"ECCENTRICITY":0.01056841,"INCLINATION":98.2902,"RA_OF_ASC_NODE":72.6139,"ARG_OF_PERICENTER":106.0366,"MEAN_ANOMALY":255.2498,"EPHEMERIS_TYPE":0,"CLASSIFICATION_TYPE":"U","NORAD_CAT_ID":38176,"ELEMENT_SET_NO":999,"REV_AT_EPOCH":74721,"BSTAR":0.00078343205,"MEAN_MOTION_DOT":3.173e-5,"MEAN_MOTION_DDOT":0}]
